$$SOE
2460728.500000000, A.D. 2025-Feb-22 00:00:00.0000, -5.170790460590968E+08, 1.643138950572535E+08, 1.347505800861661E+08,
2460735.500000000, A.D. 2025-Mar-01 00:00:00.0000, -5.198463100909901E+08, 1.564642407306966E+08, 1.355725333497345E+08,
2460742.500000000, A.D. 2025-Mar-08 00:00:00.0000, -5.224694907281854E+08, 1.485711848719542E+08, 1.363569117222588E+08,
2460749.500000000, A.D. 2025-Mar-15 00:00:00.0000, -5.249482310392053E+08, 1.406370230022693E+08, 1.371035950818454E+08,
2460756.500000000, A.D. 2025-Mar-22 00:00:00.0000, -5.272821937575029E+08, 1.326640461043915E+08, 1.378124685257078E+08,
2460763.500000000, A.D. 2025-Mar-29 00:00:00.0000, -5.294710617874852E+08, 1.246545392689345E+08, 1.384834222060914E+08,
2460770.500000000, A.D. 2025-Apr-05 00:00:00.0000, -5.315145370387101E+08, 1.166107812272003E+08, 1.391163510893130E+08,
2460777.500000000, A.D. 2025-Apr-12 00:00:00.0000, -5.334123395144469E+08, 1.085350448733569E+08, 1.397111548228212E+08,
2460784.500000000, A.D. 2025-Apr-19 00:00:00.0000, -5.351642068429193E+08, 1.004295978946508E+08, 1.402677376556641E+08,
2460791.500000000, A.D. 2025-Apr-26 00:00:00.0000, -5.367698939801577E+08, 9.229670330744003E+07, 1.407860083710153E+08,
2460798.500000000, A.D. 2025-May-03 00:00:00.0000, -5.382291729707015E+08, 8.413861991908696E+07, 1.412658802218156E+08,
2460805.500000000, A.D. 2025-May-10 00:00:00.0000, -5.395418327371455E+08, 7.595760272499166E+07, 1.417072708673716E+08,
2460812.500000000, A.D. 2025-May-17 00:00:00.0000, -5.407076788612908E+08, 6.775590320011336E+07, 1.421101023039045E+08,
2460819.500000000, A.D. 2025-May-24 00:00:00.0000, -5.417265331824574E+08, 5.953576943072908E+07, 1.424743007683719E+08,
2460826.500000000, A.D. 2025-May-31 00:00:00.0000, -5.425982327946438E+08, 5.129944639749700E+07, 1.427997966023968E+08,
2460833.500000000, A.D. 2025-Jun-07 00:00:00.0000, -5.433226288429409E+08, 4.304917761450499E+07, 1.430865242112904E+08,
2460840.500000000, A.D. 2025-Jun-14 00:00:00.0000, -5.438995874837228E+08, 3.478720745712639E+07, 1.433344222804932E+08,
2460847.500000000, A.D. 2025-Jun-21 00:00:00.0000, -5.443289917924550E+08, 2.651578090742454E+07, 1.435434338707512E+08,
2460854.500000000, A.D. 2025-Jun-28 00:00:00.0000, -5.446107414906867E+08, 1.823714248244403E+07, 1.437135062493497E+08,
2460861.500000000, A.D. 2025-Jul-05 00:00:00.0000, -5.447447520079433E+08, 9.953536501857407E+06, 1.438445907724063E+08,
2460868.500000000, A.D. 2025-Jul-12 00:00:00.0000, -5.447309540693594E+08, 1.667207889105752E+06, 1.439366428615658E+08,
2460875.500000000, A.D. 2025-Jul-19 00:00:00.0000, -5.445692936199495E+08, -6.619597069201544E+06, 1.439896220109432E+08,
2460882.500000000, A.D. 2025-Jul-26 00:00:00.0000, -5.442597318758879E+08, -1.490463006203341E+07, 1.440034918006554E+08,
2460889.500000000, A.D. 2025-Aug-02 00:00:00.0000, -5.438022454374952E+08, -2.318564016899806E+07, 1.439782199128646E+08,
2460896.500000000, A.D. 2025-Aug-09 00:00:00.0000, -5.431968264405456E+08, -3.146037336619658E+07, 1.439137781471394E+08,
2460903.500000000, A.D. 2025-Aug-16 00:00:00.0000, -5.424434826690344E+08, -3.972657218593375E+07, 1.438101424230981E+08,
2460910.500000000, A.D. 2025-Aug-23 00:00:00.0000, -5.415422373368738E+08, -4.798197551363032E+07, 1.436672927450729E+08,
2460917.500000000, A.D. 2025-Aug-30 00:00:00.0000, -5.404931282095920E+08, -5.622431780777606E+07, 1.434852131571896E+08,
2460924.500000000, A.D. 2025-Sep-06 00:00:00.0000, -5.392962074841617E+08, -6.445132674278619E+07, 1.432638919008885E+08,
2460931.500000000, A.D. 2025-Sep-13 00:00:00.0000, -5.379515440983056E+08, -7.266072175806060E+07, 1.430033217256577E+08,
2460938.500000000, A.D. 2025-Sep-20 00:00:00.0000, -5.364592251971474E+08, -8.085021515762739E+07, 1.427034999190530E+08,
2460945.500000000, A.D. 2025-Sep-27 00:00:00.0000, -5.348193556988541E+08, -8.901751264822516E+07, 1.423644282135071E+08,
2460952.500000000, A.D. 2025-Oct-04 00:00:00.0000, -5.330320579756287E+08, -9.716031277661344E+07, 1.419861127989566E+08,
2460959.500000000, A.D. 2025-Oct-11 00:00:00.0000, -5.310974720241085E+08, -1.052763062095891E+08, 1.415685643986977E+08,
2460966.500000000, A.D. 2025-Oct-18 00:00:00.0000, -5.290157558424466E+08, -1.133631751312708E+08, 1.411117983604075E+08,
2460973.500000000, A.D. 2025-Oct-25 00:00:00.0000, -5.267870858754132E+08, -1.214185927463284E+08, 1.406158347507064E+08,
2460980.500000000, A.D. 2025-Nov-01 00:00:00.0000, -5.244116574886642E+08, -1.294402228730917E+08, 1.400806984509638E+08,
2460987.500000000, A.D. 2025-Nov-08 00:00:00.0000, -5.218896854379121E+08, -1.374257196573054E+08, 1.395064192484373E+08,
2460994.500000000, A.D. 2025-Nov-15 00:00:00.0000, -5.192214041851557E+08, -1.453727274645491E+08, 1.388930319040453E+08,
2461001.500000000, A.D. 2025-Nov-22 00:00:00.0000, -5.164070676591254E+08, -1.532788807309982E+08, 1.382405761773888E+08,
2461008.500000000, A.D. 2025-Nov-29 00:00:00.0000, -5.134469486130018E+08, -1.611418026377493E+08, 1.375490969154395E+08,
2461015.500000000, A.D. 2025-Dec-06 00:00:00.0000, -5.103413398571038E+08, -1.689591027455475E+08, 1.368186444025270E+08,
2461022.500000000, A.D. 2025-Dec-13 00:00:00.0000, -5.070905569343622E+08, -1.767283769613734E+08, 1.360492746568465E+08,
2461029.500000000, A.D. 2025-Dec-20 00:00:00.0000, -5.036949387474614E+08, -1.844472088140089E+08, 1.352410494374176E+08,
2461036.500000000, A.D. 2025-Dec-27 00:00:00.0000, -5.001548472125294E+08, -1.921131694466669E+08, 1.343940362720459E+08,
2461043.500000000, A.D. 2026-Jan-03 00:00:00.0000, -4.964706673990215E+08, -1.997238169418754E+08, 1.335083085898353E+08,
2461050.500000000, A.D. 2026-Jan-10 00:00:00.0000, -4.926428080467317E+08, -2.072766956575254E+08, 1.325839458928762E+08,
2461057.500000000, A.D. 2026-Jan-17 00:00:00.0000, -4.886717022283626E+08, -2.147693356655696E+08, 1.316210339386325E+08,
2461064.500000000, A.D. 2026-Jan-24 00:00:00.0000, -4.845578080806839E+08, -2.221992522704474E+08, 1.306196649281004E+08,
2461071.500000000, A.D. 2026-Jan-31 00:00:00.0000, -4.803016095816746E+08, -2.295639456143670E+08, 1.295799376972986E+08,
2461078.500000000, A.D. 2026-Feb-07 00:00:00.0000, -4.759036173129514E+08, -2.368609004266281E+08, 1.285019579020851E+08,
2461085.500000000, A.D. 2026-Feb-14 00:00:00.0000, -4.713643689552758E+08, -2.440875859322577E+08, 1.273858381721636E+08,
2461092.500000000, A.D. 2026-Feb-21 00:00:00.0000, -4.666844291304266E+08, -2.512414553430171E+08, 1.262316982462160E+08,
2461099.500000000, A.D. 2026-Feb-28 00:00:00.0000, -4.618643896749507E+08, -2.583199437776290E+08, 1.250396652821593E+08,
2461106.500000000, A.D. 2026-Mar-07 00:00:00.0000, -4.569048724050760E+08, -2.653204665622666E+08, 1.238098743722614E+08,
2461113.500000000, A.D. 2026-Mar-14 00:00:00.0000, -4.518065315986800E+08, -2.722404202457139E+08, 1.225424688185376E+08,
2461120.500000000, A.D. 2026-Mar-21 00:00:00.0000, -4.465700544132429E+08, -2.790771834323448E+08, 1.212376002424384E+08,
2461127.500000000, A.D. 2026-Mar-28 00:00:00.0000, -4.411961612501822E+08, -2.858281164049595E+08, 1.198954287975223E+08,
2461134.500000000, A.D. 2026-Apr-04 00:00:00.0000, -4.356856066699292E+08, -2.924905605043191E+08, 1.185161234617870E+08,
2461141.500000000, A.D. 2026-Apr-11 00:00:00.0000, -4.300391805847658E+08, -2.990618376270756E+08, 1.170998623555141E+08,
2461148.500000000, A.D. 2026-Apr-18 00:00:00.0000, -4.242577095713130E+08, -3.055392498506612E+08, 1.156468330700153E+08,
2461155.500000000, A.D. 2026-Apr-25 00:00:00.0000, -4.183420582579366E+08, -3.119200791722141E+08, 1.141572330048220E+08,
2461162.500000000, A.D. 2026-May-02 00:00:00.0000, -4.122931307572024E+08, -3.182015873929579E+08, 1.126312697085399E+08,
2461169.500000000, A.D. 2026-May-09 00:00:00.0000, -4.061118720194142E+08, -3.243810162162490E+08, 1.110691612069336E+08,
2461176.500000000, A.D. 2026-May-16 00:00:00.0000, -3.997992687298930E+08, -3.304555874231958E+08, 1.094711362952807E+08,
2461183.500000000, A.D. 2026-May-23 00:00:00.0000, -3.933563496988167E+08, -3.364225021058828E+08, 1.078374348741743E+08,
2461190.500000000, A.D. 2026-May-30 00:00:00.0000, -3.867841878226426E+08, -3.422789386412861E+08, 1.061683085458134E+08,
2461197.500000000, A.D. 2026-Jun-06 00:00:00.0000, -3.800839039353298E+08, -3.480220526829144E+08, 1.044640212327604E+08,
2461204.500000000, A.D. 2026-Jun-13 00:00:00.0000, -3.732566688853898E+08, -3.536489789752048E+08, 1.027248494999124E+08,
2461211.500000000, A.D. 2026-Jun-20 00:00:00.0000, -3.663037043420201E+08, -3.591568320677735E+08, 1.009510828653471E+08,
2461218.500000000, A.D. 2026-Jun-27 00:00:00.0000, -3.592262840302348E+08, -3.645427062720468E+08, 9.914302422818038E+07,
2461225.500000000, A.D. 2026-Jul-04 00:00:00.0000, -3.520257353961996E+08, -3.698036756379715E+08, 9.730099034999329E+07,
2461232.500000000, A.D. 2026-Jul-11 00:00:00.0000, -3.447034414497470E+08, -3.749367940858225E+08, 9.542531235556673E+07,
2461239.500000000, A.D. 2026-Jul-18 00:00:00.0000, -3.372608426920516E+08, -3.799390956706795E+08, 9.351633624628973E+07,
2461246.500000000, A.D. 2026-Jul-25 00:00:00.0000, -3.296994391043265E+08, -3.848075949804438E+08, 9.157442342396674E+07,
2461253.500000000, A.D. 2026-Aug-01 00:00:00.0000, -3.220207921494323E+08, -3.895392877197626E+08, 8.959995121650569E+07,
2461260.500000000, A.D. 2026-Aug-08 00:00:00.0000, -3.142265265716332E+08, -3.941311515208659E+08, 8.759331338292204E+07,
2461267.500000000, A.D. 2026-Aug-15 00:00:00.0000, -3.063183315800855E+08, -3.985801465366080E+08, 8.555492059673463E+07,
2461274.500000000, A.D. 2026-Aug-22 00:00:00.0000, -2.982979621780338E+08, -4.028832145999865E+08, 8.348520107773401E+07,
2461281.500000000, A.D. 2026-Aug-29 00:00:00.0000, -2.901672429273797E+08, -4.070372783282559E+08, 8.138460147006148E+07,
2461288.500000000, A.D. 2026-Sep-05 00:00:00.0000, -2.819280720153596E+08, -4.110392430458965E+08, 7.925358753668906E+07,
2461295.500000000, A.D. 2026-Sep-12 00:00:00.0000, -2.735824231691158E+08, -4.148859990373565E+08, 7.709264464940286E+07,
$$EOE